start=new Date('2021-08-29T00:00:00.000Z').valueOf();
sats=[{"REV_AT_EPOCH":"3418","OBJECT_NAME":"STARLINK-2100","CENTER_NAME":"EARTH","GP_ID":"183638106","CLASSIFICATION_TYPE":"U","RA_OF_ASC_NODE":"256.3352","COUNTRY_CODE":"US","SEMIMAJOR_AXIS":"6925.349","MEAN_ELEMENT_THEORY":"SGP4","OBJECT_ID":"2021-005AH","REF_FRAME":"TEME","OBJECT_TYPE":"PAYLOAD","INCLINATION":"53.0561","TLE_LINE1":"1 47380U 21005AH  21240.77376579  .00001237  00000-0  10191-3 0  9998","SITE":"AFETR","PERIAPSIS":"547.067","FILE":"3104555","RCS_SIZE":"LARGE","PERIOD":"95.592","MEAN_MOTION_DOT":"0.00001237","ELEMENT_SET_NO":"999","MEAN_ANOMALY":"311.6871","TLE_LINE2":"2 47380  53.0561 256.3352 0000212  48.4136 311.6871 15.06399766 34186","ARG_OF_PERICENTER":"48.4136","LAUNCH_DATE":"2021-01-20","NORAD_CAT_ID":"47380","MEAN_MOTION_DDOT":"0.0000000000000","ECCENTRICITY":"0.00002120","BSTAR":"0.00010191000000","DECAY_DATE":null,"EPHEMERIS_TYPE":"0","APOAPSIS":"547.361","TIME_SYSTEM":"UTC","EPOCH":"2021-08-28T18:34:13.364256","MEAN_MOTION":"15.06399766"},{"ARG_OF_PERICENTER":"321.3470","LAUNCH_DATE":"2021-01-20","NORAD_CAT_ID":"47381","MEAN_MOTION_DDOT":"0.0000000000000","ECCENTRICITY":"0.00002790","BSTAR":"0.00007898500000","EPHEMERIS_TYPE":"0","APOAPSIS":"547.374","TIME_SYSTEM":"UTC","DECAY_DATE":null,"MEAN_MOTION":"15.06410558","EPOCH":"2021-08-28T18:45:27.373248","FILE":"3104555","RCS_SIZE":"LARGE","PERIOD":"95.591","MEAN_MOTION_DOT":"0.00000896","ELEMENT_SET_NO":"999","MEAN_ANOMALY":"38.7499","TLE_LINE2":"2 47381  53.0564 261.2960 0000279 321.3470  38.7499 15.06410558 34116","MEAN_ELEMENT_THEORY":"SGP4","OBJECT_ID":"2021-005AJ","REF_FRAME":"TEME","OBJECT_TYPE":"PAYLOAD","INCLINATION":"53.0564","PERIAPSIS":"546.988","TLE_LINE1":"1 47381U 21005AJ  21240.78156682  .00000896  00000-0  78985-4 0  9997","SITE":"AFETR","CENTER_NAME":"EARTH","REV_AT_EPOCH":"3411","OBJECT_NAME":"STARLINK-2101","GP_ID":"183637857","CLASSIFICATION_TYPE":"U","RA_OF_ASC_NODE":"261.2960","SEMIMAJOR_AXIS":"6925.316","COUNTRY_CODE":"US"},{"LAUNCH_DATE":"2021-01-20","ARG_OF_PERICENTER":"45.0908","NORAD_CAT_ID":"47382","BSTAR":"0.00008279600000","MEAN_MOTION_DDOT":"0.0000000000000","ECCENTRICITY":"0.00005770","EPOCH":"2021-08-28T18:23:35.651040","MEAN_MOTION":"15.06410471","DECAY_DATE":null,"EPHEMERIS_TYPE":"0","APOAPSIS":"547.581","TIME_SYSTEM":"UTC","PERIOD":"95.591","RCS_SIZE":"LARGE","FILE":"3104555","ELEMENT_SET_NO":"999","MEAN_MOTION_DOT":"0.00000953","MEAN_ANOMALY":"315.0128","TLE_LINE2":"2 47382  53.0501 256.3765 0000577  45.0908 315.0128 15.06410471 34173","OBJECT_ID":"2021-005AK","MEAN_ELEMENT_THEORY":"SGP4","REF_FRAME":"TEME","OBJECT_TYPE":"PAYLOAD","TLE_LINE1":"1 47382U 21005AK  21240.76638485  .00000953  00000-0  82796-4 0  9991","SITE":"AFETR","PERIAPSIS":"546.782","INCLINATION":"53.0501","OBJECT_NAME":"STARLINK-2102","REV_AT_EPOCH":"3417","CENTER_NAME":"EARTH","GP_ID":"183638605","CLASSIFICATION_TYPE":"U","RA_OF_ASC_NODE":"256.3765","COUNTRY_CODE":"US","SEMIMAJOR_AXIS":"6925.316"},{"LAUNCH_DATE":"2021-01-20","ARG_OF_PERICENTER":"59.1881","NORAD_CAT_ID":"47383","BSTAR":"0.00011336000000","ECCENTRICITY":"0.00009880","MEAN_MOTION_DDOT":"0.0000000000000","EPOCH":"2021-08-28T17:14:34.501632","MEAN_MOTION":"15.06412577","DECAY_DATE":null,"APOAPSIS":"547.859","EPHEMERIS_TYPE":"0","TIME_SYSTEM":"UTC","RCS_SIZE":"LARGE","PERIOD":"95.591","FILE":"3104555","ELEMENT_SET_NO":"999","MEAN_MOTION_DOT":"0.00001408","MEAN_ANOMALY":"300.9205","TLE_LINE2":"2 47383  53.0536 246.5871 0000988  59.1881 300.9205 15.06412577 34317","OBJECT_ID":"2021-005AL","MEAN_ELEMENT_THEORY":"SGP4","REF_FRAME":"TEME","OBJECT_TYPE":"PAYLOAD","TLE_LINE1":"1 47383U 21005AL  21240.71845488  .00001408  00000-0  11336-3 0  9997","SITE":"AFETR","PERIAPSIS":"546.491","INCLINATION":"53.0536","REV_AT_EPOCH":"3431","CENTER_NAME":"EARTH","OBJECT_NAME":"STARLINK-2103","GP_ID":"183639354","CLASSIFICATION_TYPE":"U","RA_OF_ASC_NODE":"246.5871","SEMIMAJOR_AXIS":"6925.310","COUNTRY_CODE":"US"},{"SITE":"AFETR","TLE_LINE1":"1 47384U 21005AM  21240.39686985  .00001182  00000-0  98206-4 0  9998","PERIAPSIS":"546.975","INCLINATION":"53.0540","OBJECT_TYPE":"PAYLOAD","REF_FRAME":"TEME","OBJECT_ID":"2021-005AM","MEAN_ELEMENT_THEORY":"SGP4","SEMIMAJOR_AXIS":"6925.365","COUNTRY_CODE":"US","RA_OF_ASC_NODE":"258.0324","CLASSIFICATION_TYPE":"U","GP_ID":"183613891","REV_AT_EPOCH":"3473","OBJECT_NAME":"STARLINK-2104","CENTER_NAME":"EARTH","EPOCH":"2021-08-28T09:31:29.555040","MEAN_MOTION":"15.06394518","DECAY_DATE":null,"APOAPSIS":"547.486","TIME_SYSTEM":"UTC","EPHEMERIS_TYPE":"0","BSTAR":"0.00009820600000","MEAN_MOTION_DDOT":"0.0000000000000","ECCENTRICITY":"0.00003690","NORAD_CAT_ID":"47384","LAUNCH_DATE":"2021-01-20","ARG_OF_PERICENTER":"56.6426","TLE_LINE2":"2 47384  53.0540 258.0324 0000369  56.6426 303.4598 15.06394518 34737","MEAN_ANOMALY":"303.4598","ELEMENT_SET_NO":"999","MEAN_MOTION_DOT":"0.00001182","RCS_SIZE":"LARGE","PERIOD":"95.592","FILE":"3104422"},{"NORAD_CAT_ID":"47385","LAUNCH_DATE":"2021-01-20","ARG_OF_PERICENTER":"88.1716","EPOCH":"2021-08-28T17:57:03.739680","MEAN_MOTION":"15.06423048","DECAY_DATE":null,"APOAPSIS":"547.581","TIME_SYSTEM":"UTC","EPHEMERIS_TYPE":"0","BSTAR":"0.00020373000000","ECCENTRICITY":"0.00006330","MEAN_MOTION_DDOT":"0.0000000000000","ELEMENT_SET_NO":"999","MEAN_MOTION_DOT":"0.00002756","PERIOD":"95.591","RCS_SIZE":"LARGE","FILE":"3104555","TLE_LINE2":"2 47385  53.0536 256.4576 0000633  88.1716 271.9346 15.06423048 34179","MEAN_ANOMALY":"271.9346","REF_FRAME":"TEME","OBJECT_ID":"2021-005AN","MEAN_ELEMENT_THEORY":"SGP4","TLE_LINE1":"1 47385U 21005AN  21240.74795995  .00002756  00000-0  20373-3 0  9997","SITE":"AFETR","PERIAPSIS":"546.705","INCLINATION":"53.0536","OBJECT_TYPE":"PAYLOAD","CLASSIFICATION_TYPE":"U","GP_ID":"183638357","CENTER_NAME":"EARTH","REV_AT_EPOCH":"3417","OBJECT_NAME":"STARLINK-2105","SEMIMAJOR_AXIS":"6925.278","COUNTRY_CODE":"US","RA_OF_ASC_NODE":"256.4576"},{"MEAN_MOTION_DDOT":"0.0000000000000","ECCENTRICITY":"0.00005080","BSTAR":"0.00011866000000","DECAY_DATE":null,"APOAPSIS":"547.519","EPHEMERIS_TYPE":"0","TIME_SYSTEM":"UTC","EPOCH":"2021-08-28T18:39:31.081248","MEAN_MOTION":"15.06415032","ARG_OF_PERICENTER":"34.5801","LAUNCH_DATE":"2021-01-20","NORAD_CAT_ID":"47386","MEAN_ANOMALY":"325.5221","TLE_LINE2":"2 47386  53.0551 256.3105 0000508  34.5801 325.5221 15.06415032 34188","FILE":"3104555","RCS_SIZE":"LARGE","PERIOD":"95.591","MEAN_MOTION_DOT":"0.00001487","ELEMENT_SET_NO":"999","OBJECT_TYPE":"PAYLOAD","INCLINATION":"53.0551","TLE_LINE1":"1 47386U 21005AP  21240.77744307  .00001487  00000-0  11866-3 0  9999","SITE":"AFETR","PERIAPSIS":"546.816","MEAN_ELEMENT_THEORY":"SGP4","OBJECT_ID":"2021-005AP","REF_FRAME":"TEME","RA_OF_ASC_NODE":"256.3105","SEMIMAJOR_AXIS":"6925.302","COUNTRY_CODE":"US","CENTER_NAME":"EARTH","REV_AT_EPOCH":"3418","OBJECT_NAME":"STARLINK-2106","GP_ID":"183639105","CLASSIFICATION_TYPE":"U"},{"CLASSIFICATION_TYPE":"U","GP_ID":"183638855","REV_AT_EPOCH":"3376","CENTER_NAME":"EARTH","OBJECT_NAME":"STARLINK-2108","COUNTRY_CODE":"US","SEMIMAJOR_AXIS":"6925.338","RA_OF_ASC_NODE":"286.0807","REF_FRAME":"TEME","OBJECT_ID":"2021-005AQ","MEAN_ELEMENT_THEORY":"SGP4","SITE":"AFETR","TLE_LINE1":"1 47387U 21005AQ  21240.82997321  .00001816  00000-0  14075-3 0  9993","PERIAPSIS":"546.678","INCLINATION":"53.0552","OBJECT_TYPE":"PAYLOAD","ELEMENT_SET_NO":"999","MEAN_MOTION_DOT":"0.00001816","RCS_SIZE":"LARGE","PERIOD":"95.592","FILE":"3104555","TLE_LINE2":"2 47387  53.0552 286.0807 0000759  86.7692 273.3384 15.06403350 33767","MEAN_ANOMALY":"273.3384","NORAD_CAT_ID":"47387","LAUNCH_DATE":"2021-01-20","ARG_OF_PERICENTER":"86.7692","EPOCH":"2021-08-28T19:55:09.685344","MEAN_MOTION":"15.06403350","DECAY_DATE":null,"APOAPSIS":"547.729","TIME_SYSTEM":"UTC","EPHEMERIS_TYPE":"0","BSTAR":"0.00014075000000","MEAN_MOTION_DDOT":"0.0000000000000","ECCENTRICITY":"0.00007590"},{"ELEMENT_SET_NO":"999","MEAN_MOTION_DOT":"0.00000369","PERIOD":"95.592","RCS_SIZE":"LARGE","FILE":"3104555","TLE_LINE2":"2 47388  53.0552 286.9089 0000714  97.9202 262.1868 15.06405081 33734","MEAN_ANOMALY":"262.1868","NORAD_CAT_ID":"47388","LAUNCH_DATE":"2021-01-20","ARG_OF_PERICENTER":"97.9202","EPOCH":"2021-08-28T15:29:46.434912","MEAN_MOTION":"15.06405081","DECAY_DATE":null,"EPHEMERIS_TYPE":"0","APOAPSIS":"547.692","TIME_SYSTEM":"UTC","BSTAR":"0.00004365100000","MEAN_MOTION_DDOT":"0.0000000000000","ECCENTRICITY":"0.00007140","GP_ID":"183638107","CLASSIFICATION_TYPE":"U","CENTER_NAME":"EARTH","REV_AT_EPOCH":"3373","OBJECT_NAME":"STARLINK-2109","SEMIMAJOR_AXIS":"6925.333","COUNTRY_CODE":"US","RA_OF_ASC_NODE":"286.9089","REF_FRAME":"TEME","OBJECT_ID":"2021-005AR","MEAN_ELEMENT_THEORY":"SGP4","SITE":"AFETR","TLE_LINE1":"1 47388U 21005AR  21240.64567633  .00000369  00000-0  43651-4 0  9998","PERIAPSIS":"546.704","INCLINATION":"53.0552","OBJECT_TYPE":"PAYLOAD"},{"ARG_OF_PERICENTER":"69.2428","LAUNCH_DATE":"2021-01-20","NORAD_CAT_ID":"47389","MEAN_MOTION_DDOT":"0.0000000000000","ECCENTRICITY":"0.00008110","BSTAR":"-0.00002749600000","APOAPSIS":"547.788","EPHEMERIS_TYPE":"0","TIME_SYSTEM":"UTC","DECAY_DATE":null,"MEAN_MOTION":"15.06395819","EPOCH":"2021-08-28T08:38:25.775520","FILE":"3104340","PERIOD":"95.592","RCS_SIZE":"LARGE","MEAN_MOTION_DOT":"-0.00000691","ELEMENT_SET_NO":"999","MEAN_ANOMALY":"290.8647","TLE_LINE2":"2 47389  53.0500 268.1977 0000811  69.2428 290.8647 15.06395819 33972","MEAN_ELEMENT_THEORY":"SGP4","OBJECT_ID":"2021-005AS","REF_FRAME":"TEME","OBJECT_TYPE":"PAYLOAD","INCLINATION":"53.0500","PERIAPSIS":"546.665","SITE":"AFETR","TLE_LINE1":"1 47389U 21005AS  21240.36002055 -.00000691  00000-0 -27496-4 0  9999","OBJECT_NAME":"STARLINK-2110","REV_AT_EPOCH":"3397","CENTER_NAME":"EARTH","GP_ID":"183610253","CLASSIFICATION_TYPE":"U","RA_OF_ASC_NODE":"268.1977","COUNTRY_CODE":"US","SEMIMAJOR_AXIS":"6925.361"}];
